STARLINK-1411
1 45706U 20035BB  23197.88953470  .00014073  00000+0  96138-3 0  9992
2 45706  53.0548  56.7545 0001057  91.6808 268.4302 15.06415079173022
STARLINK-1412
1 45707U 20035BC  23197.95220088  .00015472  00000+0  10548-2 0  9997
2 45707  53.0553  56.4730 0000820  97.1781 262.9301 15.06416950173038
STARLINK-1418
1 45708U 20035BD  23197.99274094  .00017119  00000+0  11645-2 0  9997
2 45708  53.0541  56.2890 0001056  79.9122 280.1986 15.06426785173049
STARLINK-1421
1 45709U 20035BE  23197.10074777  .00015852  00000+0  10810-2 0  9992
2 45709  53.0549  60.2949 0000883  80.9844 279.1245 15.06389353172907
STARLINK-1423
1 45710U 20035BF  23197.95956557  .00015766  00000+0  10744-2 0  9992
2 45710  53.0551  56.4380 0001079  85.8690 274.2422 15.06419856173039
STARLINK-1433
1 45711U 20035BG  23198.33921977  .00008649  00000+0  59861-3 0  9990
2 45711  53.0549  54.7338 0001262  87.0995 273.0138 15.06412777173099
STARLINK-1434
1 45712U 20035BH  23198.33553556  .00006406  00000+0  44843-3 0  9998
2 45712  53.0559  54.7494 0001195  97.6375 262.4749 15.06409335173094
STARLINK-1436 (VISORSAT)
1 45713U 20035BJ  23198.35580251  .00009093  00000+0  62818-3 0  9990
2 45713  53.0548  74.6613 0001340  87.0648 273.0494 15.06420341172819
STARLINK-1437
1 45714U 20035BK  23198.01486389  .00016464  00000+0  11210-2 0  9990
2 45714  53.0554  56.1909 0000832 100.4046 259.7037 15.06419013173041
STARLINK-1461
1 45730U 20038A   23198.42400612  .00016803  00000+0  11443-2 0  9996
2 45730  53.0522 254.3575 0001057  68.1991 291.9110 15.06397350171670
STARLINK-1465
1 45731U 20038B   23197.64257942  .00003307  00000+0  24089-3 0  9992
2 45731  53.0534 257.8599 0001122  81.0845 279.0271 15.06381988171409
STARLINK-1466
1 45732U 20038C   23197.49882746  .00001882  00000+0  14525-3 0  9992
2 45732  53.0530 258.5043 0001028  85.7002 274.4104 15.06380448171537
STARLINK-1467
1 45733U 20038D   23198.39723549  .00007827  00000+0  35251-3 0  9992
2 45733  53.0635 235.9441 0003923 137.5907 222.5393 15.21981904171929
STARLINK-1468
1 45734U 20038E   23198.46412671  .00041793  00000+0  20086-2 0  9991
2 45734  53.0541 242.1637 0003182  22.5237 337.5896 15.18436666171841
