[{
    "OBJECT_NAME": "STARLINK-1411",
    "OBJECT_ID": "2020-035BB",
    "EPOCH": "2023-07-16T21:20:55.798080",
    "MEAN_MOTION": 15.06415079,
    "ECCENTRICITY": 0.0001057,
    "INCLINATION": 53.0548,
    "RA_OF_ASC_NODE": 56.7545,
    "ARG_OF_PERICENTER": 91.6808,
    "MEAN_ANOMALY": 268.4302,
    "EPHEMERIS_TYPE": 0,
    "CLASSIFICATION_TYPE": "U",
    "NORAD_CAT_ID": 45706,
    "ELEMENT_SET_NO": 999,
    "REV_AT_EPOCH": 17302,
    "BSTAR": 0.00096138,
    "MEAN_MOTION_DOT": 0.00014073,
    "MEAN_MOTION_DDOT": 0
},{
    "OBJECT_NAME": "STARLINK-1412",
    "OBJECT_ID": "2020-035BC",
    "EPOCH": "2023-07-16T22:51:10.156032",
    "MEAN_MOTION": 15.0641695,
    "ECCENTRICITY": 8.2e-5,
    "INCLINATION": 53.0553,
    "RA_OF_ASC_NODE": 56.473,
    "ARG_OF_PERICENTER": 97.1781,
    "MEAN_ANOMALY": 262.9301,
    "EPHEMERIS_TYPE": 0,
    "CLASSIFICATION_TYPE": "U",
    "NORAD_CAT_ID": 45707,
    "ELEMENT_SET_NO": 999,
    "REV_AT_EPOCH": 17303,
    "BSTAR": 0.0010548,
    "MEAN_MOTION_DOT": 0.00015472,
    "MEAN_MOTION_DDOT": 0
},{
    "OBJECT_NAME": "STARLINK-1418",
    "OBJECT_ID": "2020-035BD",
    "EPOCH": "2023-07-16T23:49:32.817216",
    "MEAN_MOTION": 15.06426785,
    "ECCENTRICITY": 0.0001056,
    "INCLINATION": 53.0541,
    "RA_OF_ASC_NODE": 56.289,
    "ARG_OF_PERICENTER": 79.9122,
    "MEAN_ANOMALY": 280.1986,
    "EPHEMERIS_TYPE": 0,
    "CLASSIFICATION_TYPE": "U",
    "NORAD_CAT_ID": 45708,
    "ELEMENT_SET_NO": 999,
    "REV_AT_EPOCH": 17304,
    "BSTAR": 0.0011645,
    "MEAN_MOTION_DOT": 0.00017119,
    "MEAN_MOTION_DDOT": 0
},{
    "OBJECT_NAME": "STARLINK-1421",
    "OBJECT_ID": "2020-035BE",
    "EPOCH": "2023-07-16T02:25:04.607328",
    "MEAN_MOTION": 15.06389353,
    "ECCENTRICITY": 8.83e-5,
    "INCLINATION": 53.0549,
    "RA_OF_ASC_NODE": 60.2949,
    "ARG_OF_PERICENTER": 80.9844,
    "MEAN_ANOMALY": 279.1245,
    "EPHEMERIS_TYPE": 0,
    "CLASSIFICATION_TYPE": "U",
    "NORAD_CAT_ID": 45709,
    "ELEMENT_SET_NO": 999,
    "REV_AT_EPOCH": 17290,
    "BSTAR": 0.001081,
    "MEAN_MOTION_DOT": 0.00015852,
    "MEAN_MOTION_DDOT": 0
},{
    "OBJECT_NAME": "STARLINK-1423",
    "OBJECT_ID": "2020-035BF",
    "EPOCH": "2023-07-16T23:01:46.465248",
    "MEAN_MOTION": 15.06419856,
    "ECCENTRICITY": 0.0001079,
    "INCLINATION": 53.0551,
    "RA_OF_ASC_NODE": 56.438,
    "ARG_OF_PERICENTER": 85.869,
    "MEAN_ANOMALY": 274.2422,
    "EPHEMERIS_TYPE": 0,
    "CLASSIFICATION_TYPE": "U",
    "NORAD_CAT_ID": 45710,
    "ELEMENT_SET_NO": 999,
    "REV_AT_EPOCH": 17303,
    "BSTAR": 0.0010744,
    "MEAN_MOTION_DOT": 0.00015766,
    "MEAN_MOTION_DDOT": 0
},{
    "OBJECT_NAME": "STARLINK-1433",
    "OBJECT_ID": "2020-035BG",
    "EPOCH": "2023-07-17T08:08:28.588128",
    "MEAN_MOTION": 15.06412777,
    "ECCENTRICITY": 0.0001262,
    "INCLINATION": 53.0549,
    "RA_OF_ASC_NODE": 54.7338,
    "ARG_OF_PERICENTER": 87.0995,
    "MEAN_ANOMALY": 273.0138,
    "EPHEMERIS_TYPE": 0,
    "CLASSIFICATION_TYPE": "U",
    "NORAD_CAT_ID": 45711,
    "ELEMENT_SET_NO": 999,
    "REV_AT_EPOCH": 17309,
    "BSTAR": 0.00059861,
    "MEAN_MOTION_DOT": 8.649e-5,
    "MEAN_MOTION_DDOT": 0
},{
    "OBJECT_NAME": "STARLINK-1434",
    "OBJECT_ID": "2020-035BH",
    "EPOCH": "2023-07-17T08:03:10.272384",
    "MEAN_MOTION": 15.06409335,
    "ECCENTRICITY": 0.0001195,
    "INCLINATION": 53.0559,
    "RA_OF_ASC_NODE": 54.7494,
    "ARG_OF_PERICENTER": 97.6375,
    "MEAN_ANOMALY": 262.4749,
    "EPHEMERIS_TYPE": 0,
    "CLASSIFICATION_TYPE": "U",
    "NORAD_CAT_ID": 45712,
    "ELEMENT_SET_NO": 999,
    "REV_AT_EPOCH": 17309,
    "BSTAR": 0.00044843,
    "MEAN_MOTION_DOT": 6.406e-5,
    "MEAN_MOTION_DDOT": 0
},{
    "OBJECT_NAME": "STARLINK-1436 (VISORSAT)",
    "OBJECT_ID": "2020-035BJ",
    "EPOCH": "2023-07-17T08:32:21.336864",
    "MEAN_MOTION": 15.06420341,
    "ECCENTRICITY": 0.000134,
    "INCLINATION": 53.0548,
    "RA_OF_ASC_NODE": 74.6613,
    "ARG_OF_PERICENTER": 87.0648,
    "MEAN_ANOMALY": 273.0494,
    "EPHEMERIS_TYPE": 0,
    "CLASSIFICATION_TYPE": "U",
    "NORAD_CAT_ID": 45713,
    "ELEMENT_SET_NO": 999,
    "REV_AT_EPOCH": 17281,
    "BSTAR": 0.00062818,
    "MEAN_MOTION_DOT": 9.093e-5,
    "MEAN_MOTION_DDOT": 0
},{
    "OBJECT_NAME": "STARLINK-1437",
    "OBJECT_ID": "2020-035BK",
    "EPOCH": "2023-07-17T00:21:24.240096",
    "MEAN_MOTION": 15.06419013,
    "ECCENTRICITY": 8.32e-5,
    "INCLINATION": 53.0554,
    "RA_OF_ASC_NODE": 56.1909,
    "ARG_OF_PERICENTER": 100.4046,
    "MEAN_ANOMALY": 259.7037,
    "EPHEMERIS_TYPE": 0,
    "CLASSIFICATION_TYPE": "U",
    "NORAD_CAT_ID": 45714,
    "ELEMENT_SET_NO": 999,
    "REV_AT_EPOCH": 17304,
    "BSTAR": 0.001121,
    "MEAN_MOTION_DOT": 0.00016464,
    "MEAN_MOTION_DDOT": 0
},{
    "OBJECT_NAME": "STARLINK-1461",
    "OBJECT_ID": "2020-038A",
    "EPOCH": "2023-07-17T10:10:34.128768",
    "MEAN_MOTION": 15.0639735,
    "ECCENTRICITY": 0.0001057,
    "INCLINATION": 53.0522,
    "RA_OF_ASC_NODE": 254.3575,
    "ARG_OF_PERICENTER": 68.1991,
    "MEAN_ANOMALY": 291.911,
    "EPHEMERIS_TYPE": 0,
    "CLASSIFICATION_TYPE": "U",
    "NORAD_CAT_ID": 45730,
    "ELEMENT_SET_NO": 999,
    "REV_AT_EPOCH": 17167,
    "BSTAR": 0.0011443,
    "MEAN_MOTION_DOT": 0.00016803,
    "MEAN_MOTION_DDOT": 0
},{
    "OBJECT_NAME": "STARLINK-1465",
    "OBJECT_ID": "2020-038B",
    "EPOCH": "2023-07-16T15:25:18.861888",
    "MEAN_MOTION": 15.06381988,
    "ECCENTRICITY": 0.0001122,
    "INCLINATION": 53.0534,
    "RA_OF_ASC_NODE": 257.8599,
    "ARG_OF_PERICENTER": 81.0845,
    "MEAN_ANOMALY": 279.0271,
    "EPHEMERIS_TYPE": 0,
    "CLASSIFICATION_TYPE": "U",
    "NORAD_CAT_ID": 45731,
    "ELEMENT_SET_NO": 999,
    "REV_AT_EPOCH": 17140,
    "BSTAR": 0.00024089,
    "MEAN_MOTION_DOT": 3.307e-5,
    "MEAN_MOTION_DDOT": 0
},{
    "OBJECT_NAME": "STARLINK-1466",
    "OBJECT_ID": "2020-038C",
    "EPOCH": "2023-07-16T11:58:18.692544",
    "MEAN_MOTION": 15.06380448,
    "ECCENTRICITY": 0.0001028,
    "INCLINATION": 53.053,
    "RA_OF_ASC_NODE": 258.5043,
    "ARG_OF_PERICENTER": 85.7002,
    "MEAN_ANOMALY": 274.4104,
    "EPHEMERIS_TYPE": 0,
    "CLASSIFICATION_TYPE": "U",
    "NORAD_CAT_ID": 45732,
    "ELEMENT_SET_NO": 999,
    "REV_AT_EPOCH": 17153,
    "BSTAR": 0.00014525,
    "MEAN_MOTION_DOT": 1.882e-5,
    "MEAN_MOTION_DDOT": 0
},{
    "OBJECT_NAME": "STARLINK-1467",
    "OBJECT_ID": "2020-038D",
    "EPOCH": "2023-07-17T09:32:01.146336",
    "MEAN_MOTION": 15.21981904,
    "ECCENTRICITY": 0.0003923,
    "INCLINATION": 53.0635,
    "RA_OF_ASC_NODE": 235.9441,
    "ARG_OF_PERICENTER": 137.5907,
    "MEAN_ANOMALY": 222.5393,
    "EPHEMERIS_TYPE": 0,
    "CLASSIFICATION_TYPE": "U",
    "NORAD_CAT_ID": 45733,
    "ELEMENT_SET_NO": 999,
    "REV_AT_EPOCH": 17192,
    "BSTAR": 0.00035251,
    "MEAN_MOTION_DOT": 7.827e-5,
    "MEAN_MOTION_DDOT": 0
},{
    "OBJECT_NAME": "STARLINK-1468",
    "OBJECT_ID": "2020-038E",
    "EPOCH": "2023-07-17T11:08:20.547744",
    "MEAN_MOTION": 15.18436666,
    "ECCENTRICITY": 0.0003182,
    "INCLINATION": 53.0541,
    "RA_OF_ASC_NODE": 242.1637,
    "ARG_OF_PERICENTER": 22.5237,
    "MEAN_ANOMALY": 337.5896,
    "EPHEMERIS_TYPE": 0,
    "CLASSIFICATION_TYPE": "U",
    "NORAD_CAT_ID": 45734,
    "ELEMENT_SET_NO": 999,
    "REV_AT_EPOCH": 17184,
    "BSTAR": 0.0020086,
    "MEAN_MOTION_DOT": 0.00041793,
    "MEAN_MOTION_DDOT": 0
}]
